NORAD_CAT_ID,OBJECT_NAME,OBJECT_TYPE,EPOCH,MEAN_MOTION,ECCENTRICITY,INCLINATION,RA_OF_ASC_NODE,ARG_OF_PERICENTER,MEAN_ANOMALY,BSTAR,MEAN_MOTION_DOT,MEAN_MOTION_DDOT,TLE_LINE0,TLE_LINE1,TLE_LINE2,SEMIMAJOR_AXIS,PERIOD,APOGEE,PERIGEE,DECAYED
55391.0,STARLINK-5077,PAYLOAD,2023-06-15 04:28:09,15.6992666,0.0003526,69.9978,71.53,271.0313,89.0478,-6.9921e-06,-1.054e-05,0.0,0 STARLINK-5077,1 55391U 23014A   23166.18622196 -.00001054  00000-0 -69921-5 0  9990,2 55391  69.9978  71.5300 0003526 271.0313  89.0478 15.69926660 22259,6737.244,91.724,361.484,356.733,0.0
55391.0,STARLINK-5077,PAYLOAD,2023-06-16 00:20:54,15.69947978,0.0003298,69.9982,69.2001,266.9365,93.1454,1.9573e-05,2.144e-05,0.0,0 STARLINK-5077,1 55391U 23014A   23167.01451982  .00002144  00000-0  19573-4 0  9992,2 55391  69.9982  69.2001 0003298 266.9365  93.1454 15.69947978 21447,6737.183,91.723,361.27,356.826,0.0
55391.0,STARLINK-5077,PAYLOAD,2023-06-16 11:03:11,15.6992265,0.0003894,69.9958,67.9444,265.7881,94.2869,1.4858e-05,1.574e-05,0.0,0 STARLINK-5077,1 55391U 23014A   23167.46055086  .00001574  00000-0  14858-4 0  9993,2 55391  69.9958  67.9444 0003894 265.7881  94.2869 15.69922650 21518,6737.255,91.724,361.744,356.497,0.0
55391.0,STARLINK-5077,PAYLOAD,2023-06-16 18:41:57,15.69921514,0.0003237,69.9971,67.0513,273.763,86.3195,7.2901e-06,6.64e-06,0.0,0 STARLINK-5077,1 55391U 23014A   23167.77913917  .00000664  00000-0  72901-5 0  9996,2 55391  69.9971  67.0513 0003237 273.7630  86.3195 15.69921514 22505,6737.259,91.724,361.304,356.943,0.0
55391.0,STARLINK-5077,PAYLOAD,2023-06-16 20:13:42,15.69919134,0.000338,69.9975,66.872,272.4028,87.6781,4.3329e-06,3.08e-06,0.0,0 STARLINK-5077,1 55391U 23014A   23167.84285763  .00000308  00000-0  43329-5 0  9992,2 55391  69.9975  66.8720 0003380 272.4028  87.6781 15.69919134 21578,6737.265,91.724,361.408,356.853,0.0
55391.0,STARLINK-5077,PAYLOAD,2023-06-17 03:52:30,15.69895656,0.0003292,69.9982,65.9751,273.0187,87.0632,-2.1012e-05,-2.735e-05,0.0,0 STARLINK-5077,1 55391U 23014A   23168.16146281 -.00002735  00000-0 -21012-4 0  9991,2 55391  69.9982  65.9751 0003292 273.0187  87.0632 15.69895656 21622,6737.333,91.726,361.415,356.98,0.0
55391.0,STARLINK-5077,PAYLOAD,2023-06-17 16:06:30,15.69908069,0.0004139,69.9993,64.5429,265.8626,94.2097,-1.1061e-05,-1.542e-05,0.0,0 STARLINK-5077,1 55391U 23014A   23168.67118886 -.00001542  00000-0 -11061-4 0  9995,2 55391  69.9993  64.5429 0004139 265.8626  94.2097 15.69908069 21706,6737.297,91.725,361.951,356.373,0.0
55391.0,STARLINK-5077,PAYLOAD,2023-06-17 23:45:14,15.69944466,0.0003106,69.9974,63.6476,263.9444,96.1398,9.0519e-06,8.77e-06,0.0,0 STARLINK-5077,1 55391U 23014A   23168.98974608  .00000877  00000-0  90519-5 0  9995,2 55391  69.9974  63.6476 0003106 263.9444  96.1398 15.69944466 21758,6737.193,91.723,361.15,356.965,0.0
55391.0,STARLINK-5077,PAYLOAD,2023-06-18 10:27:30,15.6993644,0.0003657,69.9986,62.3922,270.7337,89.3439,-1.4342e-05,-1.938e-05,0.0,0 STARLINK-5077,1 55391U 23014A   23169.43576945 -.00001938  00000-0 -14342-4 0  9998,2 55391  69.9986  62.3922 0003657 270.7337  89.3439 15.69936440 22766,6737.216,91.723,361.545,356.617,0.0
55391.0,STARLINK-5077,PAYLOAD,2023-06-19 03:16:56,15.6981802,0.0003816,69.9982,60.4229,281.6246,78.4521,-9.3501e-05,-0.00011392,0.0,0 STARLINK-5077,1 55391U 23014A   23170.13676074 -.00011392  00000-0 -93501-4 0  9990,2 55391  69.9982  60.4229 0003816 281.6246  78.4521 15.69818020 21930,6737.555,91.73,361.991,356.849,0.0
55391.0,STARLINK-5077,PAYLOAD,2023-06-20 02:14:46,15.68976427,0.0004651,69.9981,57.7405,294.0885,65.9824,-0.00090286,-0.00103372,0.0,0 STARLINK-5077,1 55391U 23014A   23171.09358850 -.00103372  00000-0 -90286-3 0  9991,2 55391  69.9981  57.7405 0004651 294.0885  65.9824 15.68976427 22088,6739.964,91.78,364.964,358.694,0.0
55391.0,STARLINK-5077,PAYLOAD,2023-06-20 22:00:00,15.65895415,0.0003735,69.9995,55.4342,269.8034,52.5745,-0.0096529,-0.00899525,0.0,0 STARLINK-5077,1 55391U 23014A   23171.91667824 -.00899525  00000-0 -96529-2 0  9993,2 55391  69.9995  55.4342 0003735 269.8034  52.5745 15.65895415 22219,6748.802,91.96,373.187,368.146,0.0
55391.0,STARLINK-5077,PAYLOAD,2023-06-21 14:00:01,15.64596939,0.0003457,69.9996,53.5729,267.5636,210.2745,-0.010008,-0.00886457,0.0,0 STARLINK-5077,1 55391U 23014A   23172.58334491 -.00886457  00000-0 -10008-1 0  9995,2 55391  69.9996  53.5729 0003457 267.5636 210.2745 15.64596939  1300,6752.535,92.036,376.735,372.066,0.0
55391.0,STARLINK-5077,PAYLOAD,2023-06-21 22:00:01,15.63921289,0.0003452,69.9996,52.6435,269.9968,284.4848,-0.010087,-0.00871186,0.0,0 STARLINK-5077,1 55391U 23014A   23172.91668981 -.00871186  00000-0 -10087-1 0  9996,2 55391  69.9996  52.6435 0003452 269.9968 284.4848 15.63921289 22368,6754.48,92.076,378.677,374.013,0.0
55391.0,STARLINK-5077,PAYLOAD,2023-06-22 14:00:01,15.62645594,0.0003487,69.9991,50.7873,266.0827,79.0917,-0.010933,-0.00895701,0.0,0 STARLINK-5077,1 55391U 23014A   23173.58334491 -.00895701  00000-0 -10933-1 0  9995,2 55391  69.9991  50.7873 0003487 266.0827  79.0917 15.62645594 22476,6758.155,92.151,382.377,377.664,0.0
55391.0,STARLINK-5077,PAYLOAD,2023-06-23 06:00:00,15.61369875,0.0003233,69.9991,48.9345,273.4255,219.3938,-0.012395,-0.00959611,0.0,0 STARLINK-5077,1 55391U 23014A   23174.25001157 -.00959611  00000-0 -12395-1 0  9995,2 55391  69.9991  48.9345 0003233 273.4255 219.3938 15.61369875 22572,6761.836,92.227,385.887,381.515,0.0
55391.0,STARLINK-5077,PAYLOAD,2023-06-23 22:00:01,15.60007623,0.0003327,69.9992,47.086,272.2069,5.2164,-0.011685,-0.0086684,0.0,0 STARLINK-5077,1 55391U 23014A   23174.91668981 -.00866840  00000-0 -11685-1 0  9994,2 55391  69.9992  47.0860 0003327 272.2069   5.2164 15.60007623 22683,6765.772,92.307,389.888,385.386,0.0
55391.0,STARLINK-5077,PAYLOAD,2023-06-24 14:00:01,15.58741334,0.0003393,69.9991,45.2405,269.1351,149.5931,-0.012962,-0.00911884,0.0,0 STARLINK-5077,1 55391U 23014A   23175.58334491 -.00911884  00000-0 -12962-1 0  9992,2 55391  69.9991  45.2405 0003393 269.1351 149.5931 15.58741334 22785,6769.436,92.382,393.598,389.004,0.0
55391.0,STARLINK-5077,PAYLOAD,2023-06-25 14:00:01,15.56789257,0.0003441,69.9995,42.4793,265.1593,359.7827,-0.014007,-0.00915213,0.0,0 STARLINK-5077,1 55391U 23014A   23176.58334491 -.00915213  00000-0 -14007-1 0  9995,2 55391  69.9995  42.4793 0003441 265.1593 359.7827 15.56789257 22947,6775.093,92.498,399.29,394.627,0.0
55391.0,STARLINK-5077,PAYLOAD,2023-06-26 14:00:01,15.54833895,0.0003478,69.9997,39.7263,268.2165,195.9029,-0.015133,-0.00919191,0.0,0 STARLINK-5077,1 55391U 23014A   23177.58334491 -.00919191  00000-0 -15133-1 0  9996,2 55391  69.9997  39.7263 0003478 268.2165 195.9029 15.54833895 23096,6780.773,92.614,404.996,400.279,0.0
55391.0,STARLINK-5077,PAYLOAD,2023-06-27 14:00:01,15.5288036,0.0003658,69.9997,36.9813,265.8142,30.4387,-0.016341,-0.00923749,0.0,0 STARLINK-5077,1 55391U 23014A   23178.58334491 -.00923749  00000-0 -16341-1 0  9993,2 55391  69.9997  36.9813 0003658 265.8142  30.4387 15.52880360 23259,6786.458,92.731,410.806,405.841,0.0
55391.0,STARLINK-5077,PAYLOAD,2023-06-28 06:00:00,15.5140147,0.0003349,69.9995,35.1559,269.5015,150.9642,-0.0051449,-0.00293319,0.0,0 STARLINK-5077,1 55391U 23014A   23179.25001157 -.00293319  00000-0 -51449-2 0  9990,2 55391  69.9995  35.1559 0003349 269.5015 150.9642 15.51401470 23355,6790.77,92.819,414.91,410.361,0.0
55391.0,STARLINK-5077,PAYLOAD,2023-06-28 14:00:01,15.51220701,0.0003215,69.9999,34.2446,265.3906,216.0617,0.00038451,0.00022482,0.0,0 STARLINK-5077,1 55391U 23014A   23179.58334491  .00022482  00000-0  38451-3 0  9994,2 55391  69.9999  34.2446 0003215 265.3906 216.0617 15.51220701 23407,6791.298,92.83,415.346,410.979,0.0
55391.0,STARLINK-5077,PAYLOAD,2023-06-29 22:00:00,15.51223961,0.0003371,69.9997,30.5991,270.1617,94.9553,-4.0439e-05,-2.539e-05,0.0,0 STARLINK-5077,1 55391U 23014A   23180.91667824 -.00002539  00000-0 -40439-4 0  9995,2 55391  69.9997  30.5991 0003371 270.1617  94.9553 15.51223961 23611,6791.288,92.83,415.443,410.864,0.0
55391.0,STARLINK-5077,PAYLOAD,2023-06-30 22:44:26,15.51225091,0.0003237,69.9967,27.7803,266.6502,93.4314,8.8573e-06,3.55e-06,0.0,0 STARLINK-5077,1 55391U 23014A   23181.94752785  .00000355  00000-0  88573-5 0  9994,2 55391  69.9967  27.7803 0003237 266.6502  93.4314 15.51225091 23774,6791.285,92.83,415.348,410.952,0.0
55391.0,STARLINK-5077,PAYLOAD,2023-07-01 23:30:09,15.51228448,0.0003408,69.9965,24.9592,266.7055,93.3741,2.2566e-06,-3.2e-07,0.0,0 STARLINK-5077,1 55391U 23014A   23182.97927669 -.00000032  00000-0  22566-5 0  9996,2 55391  69.9965  24.9592 0003408 266.7055  93.3741 15.51228448 23930,6791.275,92.83,415.455,410.826,0.0
55391.0,STARLINK-5077,PAYLOAD,2023-07-02 14:58:44,15.5121993,0.0003436,69.9968,23.1959,266.7487,93.3306,8.5869e-06,3.39e-06,0.0,0 STARLINK-5077,1 55391U 23014A   23183.62412567  .00000339  00000-0  85869-5 0  9999,2 55391  69.9968  23.1959 0003436 266.7487  93.3306 15.51219930 24036,6791.3,92.83,415.499,410.832,0.0
55391.0,STARLINK-5077,PAYLOAD,2023-07-02 22:43:01,15.51228655,0.0003465,69.9971,22.3143,267.4815,92.5974,9.4853e-06,3.92e-06,0.0,0 STARLINK-5077,1 55391U 23014A   23183.94654265  .00000392  00000-0  94853-5 0  9999,2 55391  69.9971  22.3143 0003465 267.4815  92.5974 15.51228655 24082,6791.275,92.83,415.493,410.786,0.0
55391.0,STARLINK-5077,PAYLOAD,2023-07-03 15:44:27,15.51217047,0.0003435,69.9977,20.3749,267.2467,92.8326,1.5865e-05,7.67e-06,0.0,0 STARLINK-5077,1 55391U 23014A   23184.65587679  .00000767  00000-0  15865-4 0  9993,2 55391  69.9977  20.3749 0003435 267.2467  92.8326 15.51217047 24195,6791.309,92.83,415.506,410.841,0.0
55391.0,STARLINK-5077,PAYLOAD,2023-07-03 21:55:53,15.51227134,0.0003484,69.9976,19.6695,267.9683,92.1104,1.2039e-05,5.42e-06,0.0,0 STARLINK-5077,1 55391U 23014A   23184.91380949  .00000542  00000-0  12039-4 0  9994,2 55391  69.9976  19.6695 0003484 267.9683  92.1104 15.51227134 24236,6791.279,92.83,415.51,410.778,0.0
